TDRS 3                  
1 19548U 88091B   26166.81979065 -.00000304  00000+0  00000+0 0  9995
2 19548  12.6029 341.0124 0038425 356.0252 173.3596  1.00273499125376
FLTSATCOM 8 (USA 46)    
1 20253U 89077A   26166.92549411 -.00000373  00000+0  00000+0 0  9991
2 20253  12.4220 351.1725 0004444  54.9302 316.9434  1.00278140260559
SKYNET 4C               
1 20776U 90079A   26162.20198485  .00000132  00000+0  00000+0 0  9995
2 20776  13.3423 349.8525 0002401  96.2300 279.5546  1.00274124130837
TDRS 5                  
1 21639U 91054B   26167.21482140  .00000076  00000+0  00000+0 0  9995
2 21639  14.0713 353.7876 0006430 275.1549 265.1909  1.00273750127708
TDRS 6                  
1 22314U 93003B   26166.39253484 -.00000301  00000+0  00000+0 0  9999
2 22314  14.1828 357.0733 0007880 177.9710 184.1432  1.00272041122398
UFO 2 (USA 95)          
1 22787U 93056A   26166.69249690  .00000119  00000+0  00000+0 0  9994
2 22787  11.8943   3.5642 0005880   8.1882 170.1856  1.00276014118539
USA 99 (MILSTAR-1 1)    
1 22988U 94009A   26166.83167010 -.00000159  00000+0  00000+0 0  9992
2 22988  17.6250  27.7207 0001078 220.1657 328.1792  0.98722938 32933
UFO 4 (USA 108)         
1 23467U 95003A   26166.79214384 -.00000028  00000+0  00000+0 0  9997
2 23467   9.7002  13.2360 0003103  66.0761 282.1011  1.00272349114931
TDRS 7                  
1 23613U 95035B   26166.98951391 -.00000242  00000+0  00000+0 0  9990
2 23613  13.3776 348.1993 0011051  78.5011 282.6626  1.00264780113242
USA 115 (MILSTAR-1 2)   
1 23712U 95060A   26167.15117691 -.00000197  00000+0  00000+0 0  9994
2 23712  14.0726   3.7578 0001493 141.9990  78.5280  1.00364452 32872
INMARSAT 3-F1           
1 23839U 96020A   26167.20878065 -.00000133  00000+0  00000+0 0  9996
2 23839  10.5990  46.6444 0003766  49.8025 149.0623  0.99978742110247
INMARSAT 3-F2           
1 24307U 96053A   26166.56337769 -.00000252  00000+0  00000+0 0  9994
2 24307   9.8535  53.9541 0006731  28.5208 175.1339  1.00003450108907
INMARSAT 3-F3           
1 24674U 96070A   26166.78772377  .00000129  00000+0  00000+0 0  9994
2 24674  10.3153  49.6676 0003367  25.1275 156.8280  0.99981717107893
AMC-3                   
1 24936U 97050A   26166.61704679  .00000065  00000+0  00000+0 0  9995
2 24936   8.1608  64.0027 0004040  26.4424 272.0767  0.99061254 52417
USA 134                 
1 25019U 97065A   26167.15389411 -.00000071  00000+0  00000+0 0  9995
2 25019  12.7831  21.7318 0003364 335.9263 209.8977  1.00269026 32946
INMARSAT 3-F5           
1 25153U 98006B   26167.12933891 -.00000298  00000+0  00000+0 0  9995
2 25153   9.6913  53.2708 0004429  28.0011 175.6785  1.00267990103885
ABS-6                   
1 25924U 99053A   26167.02405919 -.00000118  00000+0  00000+0 0  9999
2 25924   0.0250 288.2188 0003898 164.7593 339.0142  1.00277874 97825
UFO 10 (USA 146)        
1 25967U 99063A   26166.39704153 -.00000192  00000+0  00000+0 0  9990
2 25967   9.8473  27.2212 0001858  39.3320 317.1372  1.00271572 97320
ASIASTAR                
1 26107U 00016A   26166.63169837 -.00000338  00000+0  00000+0 0  9990
2 26107   9.1262  58.1710 0004418  26.8255 151.3358  1.00269406 95902
USA 149 (DSP 20)        
1 26356U 00024A   26167.19069647  .00000086  00000+0  00000+0 0  9994
2 26356  13.1700  11.8609 0001951 307.8197 208.0400  1.00274220 32908
TDRS 8                  
1 26388U 00034A   26166.61327062 -.00000200  00000+0  00000+0 0  9993
2 26388  12.6811  31.3362 0004633  18.0022 159.9638  1.00267475 95169
NSS-11                  
1 26554U 00059A   26167.07812372  .00000023  00000+0  00000+0 0  9991
2 26554   2.1241  81.4032 0002772 350.9502  36.1174  1.00270884 41281
USA 153                 
1 26575U 00065A   26166.49956815 -.00000331  00000+0  00000+0 0  9990
2 26575  11.6218  35.4365 0003006  46.3132 136.3767  1.00269815 32910
AMC-6                   
1 26580U 00067A   26167.08783042  .00000088  00000+0  00000+0 0  9992
2 26580   0.1501  83.0685 0003464  13.8020  64.0821  1.00273009 93882
USA 157 (MILSTAR-2 2)   
1 26715U 01009A   26167.22610682  .00000102  00000+0  00000+0 0  9991
2 26715  11.5419  19.7722 0039306 177.6615 358.3994  1.00274195 32933
INTELSAT 902 (IS-902)   
1 26900U 01039A   26167.03331302 -.00000287  00000+0  00000+0 0  9993
2 26900   6.1143  71.7985 0004473   9.6249 144.7701  1.00270396 90684
USA 164 (MILSTAR-2 3)   
1 27168U 02001A   26166.77822725  .00000092  00000+0  00000+0 0  9997
2 27168  11.1780  21.9176 0098985   8.3417 172.9956  1.00276973 32944
INTELSAT 904 (IS-904)   
1 27380U 02007A   26167.10827036 -.00000231  00000+0  00000+0 0  9993
2 27380   6.9177  69.1973 0006477   4.5739 198.0962  1.00270758 51752
DIRECTV 5 (TEMPO 1)     
1 27426U 02023A   26166.66498483 -.00000059  00000+0  00000+0 0  9990
2 27426   4.8742  75.3290 0003243  23.3873 294.5201  1.00271501 88109
INTELSAT 905 (IS-905)   
1 27438U 02027A   26167.15646671  .00000089  00000+0  00000+0 0  9998
2 27438   6.7514  69.8123 0003752  20.3512  93.3755  1.00271027 51354
GALAXY 3C (G-3C)        
1 27445U 02030A   26167.20524480 -.00000155  00000+0  00000+0 0  9994
2 27445   3.7295  77.9901 0001551  32.3050 133.2202  1.00271041 46489
